IRIDIUM 150             
1 43257U 18030J   24100.43814010  .00000093  00000+0  26203-4 0  9999
2 43257  86.3922 264.2499 0002243  85.1137 275.0315 14.34218645315678
IRIDIUM 143             
1 43258U 18030K   24101.18656632  .00000020  00000+0 -91130-7 0  9992
2 43258  86.3928 263.9981 0001877  81.1496 278.9912 14.34217681315745
IRIDIUM 161             
1 43478U 18047C   24101.37902962  .00000484  00000+0  13788-3 0  9997
2 43478  86.4477  61.8826 0002281  89.9002 270.2460 14.43277517310068
IRIDIUM 152             
1 43479U 18047D   24101.36858957  .00000205  00000+0  66261-4 0  9997
2 43479  86.3954  61.7458 0002262  84.0734 276.0720 14.34217836308142
IRIDIUM 147             
1 43480U 18047E   24100.95631919 -.00000183  00000+0 -72395-4 0  9992
2 43480  86.3950  61.9097 0002233  90.7639 269.3812 14.34215428308071
IRIDIUM 110             
1 43481U 18047F   24100.82312883  .00000063  00000+0  15399-4 0  9991
2 43481  86.3956  62.0361 0002631  91.4350 268.7147 14.34216812308043
IRIDIUM 162             
1 43482U 18047G   24101.16475107  .00000497  00000+0  14169-3 0  9993
2 43482  86.4479  61.8725 0002414  92.5141 267.6337 14.43277722310022
IRIDIUM 160             
1 43569U 18061A   24100.90850246  .00000316  00000+0  10593-3 0  9994
2 43569  86.4016  30.3724 0001997  95.3252 264.8171 14.34220457298959
